{"fetched_at":"2026-07-20T18:29:45.436Z","source":"https://celestrak.org/NORAD/elements/gp.php?NAME=SPACEMOBILE&FORMAT=JSON","constellation":"ast-spacemobile","records":[{"OBJECT_NAME":"SPACEMOBILE-003","OBJECT_ID":"2024-163A","EPOCH":"2026-07-20T03:25:08.519808","CLASSIFICATION_TYPE":"U","MEAN_MOTION":15.20721715,"ECCENTRICITY":0.0004241,"INCLINATION":52.9674,"RA_OF_ASC_NODE":157.8928,"ARG_OF_PERICENTER":210.2897,"MEAN_ANOMALY":149.7852,"EPHEMERIS_TYPE":0,"NORAD_CAT_ID":61045,"ELEMENT_SET_NO":999,"REV_AT_EPOCH":10278,"BSTAR":0.000089590351,"MEAN_MOTION_DOT":0.0000167,"MEAN_MOTION_DDOT":0},{"OBJECT_NAME":"SPACEMOBILE-005","OBJECT_ID":"2024-163B","EPOCH":"2026-07-20T06:10:32.903328","CLASSIFICATION_TYPE":"U","MEAN_MOTION":15.2072064,"ECCENTRICITY":0.00086691,"INCLINATION":52.9743,"RA_OF_ASC_NODE":157.3189,"ARG_OF_PERICENTER":211.7347,"MEAN_ANOMALY":148.3126,"EPHEMERIS_TYPE":0,"NORAD_CAT_ID":61046,"ELEMENT_SET_NO":999,"REV_AT_EPOCH":10279,"BSTAR":0.000070890635,"MEAN_MOTION_DOT":0.00001252,"MEAN_MOTION_DDOT":0},{"OBJECT_NAME":"SPACEMOBILE-001","OBJECT_ID":"2024-163C","EPOCH":"2026-07-20T06:08:11.084640","CLASSIFICATION_TYPE":"U","MEAN_MOTION":15.20700764,"ECCENTRICITY":0.00069537,"INCLINATION":52.971,"RA_OF_ASC_NODE":157.0335,"ARG_OF_PERICENTER":209.4162,"MEAN_ANOMALY":150.6442,"EPHEMERIS_TYPE":0,"NORAD_CAT_ID":61047,"ELEMENT_SET_NO":999,"REV_AT_EPOCH":10279,"BSTAR":0.000008659876,"MEAN_MOTION_DOT":-0.00000135,"MEAN_MOTION_DDOT":0},{"OBJECT_NAME":"SPACEMOBILE-002","OBJECT_ID":"2024-163D","EPOCH":"2026-07-19T04:30:48.555072","CLASSIFICATION_TYPE":"U","MEAN_MOTION":15.20578455,"ECCENTRICITY":0.00047519,"INCLINATION":52.9793,"RA_OF_ASC_NODE":161.9891,"ARG_OF_PERICENTER":205.9492,"MEAN_ANOMALY":154.1265,"EPHEMERIS_TYPE":0,"NORAD_CAT_ID":61048,"ELEMENT_SET_NO":999,"REV_AT_EPOCH":10263,"BSTAR":0.00048876039,"MEAN_MOTION_DOT":0.00010534,"MEAN_MOTION_DDOT":0},{"OBJECT_NAME":"SPACEMOBILE-002 DEB","OBJECT_ID":"2024-163G","EPOCH":"2026-07-20T00:16:18.725376","CLASSIFICATION_TYPE":"U","MEAN_MOTION":15.43937934,"ECCENTRICITY":0.00047629,"INCLINATION":52.9421,"RA_OF_ASC_NODE":108.6919,"ARG_OF_PERICENTER":303.9545,"MEAN_ANOMALY":56.1006,"EPHEMERIS_TYPE":0,"NORAD_CAT_ID":62370,"ELEMENT_SET_NO":999,"REV_AT_EPOCH":10343,"BSTAR":0.00028155842,"MEAN_MOTION_DOT":0.00012613,"MEAN_MOTION_DDOT":0},{"OBJECT_NAME":"SPACEMOBILE-003 DEB","OBJECT_ID":"2024-163H","EPOCH":"2026-07-19T23:41:55.225536","CLASSIFICATION_TYPE":"U","MEAN_MOTION":15.41677186,"ECCENTRICITY":0.00054107,"INCLINATION":52.9693,"RA_OF_ASC_NODE":115.8005,"ARG_OF_PERICENTER":254.3206,"MEAN_ANOMALY":105.72,"EPHEMERIS_TYPE":0,"NORAD_CAT_ID":62371,"ELEMENT_SET_NO":999,"REV_AT_EPOCH":9694,"BSTAR":0.00027894678,"MEAN_MOTION_DOT":0.00011557,"MEAN_MOTION_DDOT":0},{"OBJECT_NAME":"SPACEMOBILE-004 DEB","OBJECT_ID":"2024-163J","EPOCH":"2026-07-20T03:19:09.388704","CLASSIFICATION_TYPE":"U","MEAN_MOTION":15.40849582,"ECCENTRICITY":0.00028024,"INCLINATION":52.9842,"RA_OF_ASC_NODE":114.7751,"ARG_OF_PERICENTER":285.7775,"MEAN_ANOMALY":74.2919,"EPHEMERIS_TYPE":0,"NORAD_CAT_ID":62372,"ELEMENT_SET_NO":999,"REV_AT_EPOCH":10003,"BSTAR":0.00019073084,"MEAN_MOTION_DOT":0.00007548,"MEAN_MOTION_DDOT":0},{"OBJECT_NAME":"SPACEMOBILE-005 DEB","OBJECT_ID":"2024-163K","EPOCH":"2026-07-20T05:10:43.608000","CLASSIFICATION_TYPE":"U","MEAN_MOTION":15.34714865,"ECCENTRICITY":0.0005494,"INCLINATION":52.9739,"RA_OF_ASC_NODE":128.8427,"ARG_OF_PERICENTER":248.3822,"MEAN_ANOMALY":111.6593,"EPHEMERIS_TYPE":0,"NORAD_CAT_ID":62373,"ELEMENT_SET_NO":999,"REV_AT_EPOCH":10319,"BSTAR":0.00019738652,"MEAN_MOTION_DOT":0.00006365,"MEAN_MOTION_DDOT":0},{"OBJECT_NAME":"SPACEMOBILE-008","OBJECT_ID":"2026-139A","EPOCH":"2026-07-20T04:10:16.862592","CLASSIFICATION_TYPE":"U","MEAN_MOTION":15.12806988,"ECCENTRICITY":0.0005247,"INCLINATION":52.9951,"RA_OF_ASC_NODE":112.8041,"ARG_OF_PERICENTER":68.3967,"MEAN_ANOMALY":291.7583,"EPHEMERIS_TYPE":0,"NORAD_CAT_ID":69589,"ELEMENT_SET_NO":999,"REV_AT_EPOCH":497,"BSTAR":0.000036450013,"MEAN_MOTION_DOT":0.00000346,"MEAN_MOTION_DDOT":0},{"OBJECT_NAME":"SPACEMOBILE-009","OBJECT_ID":"2026-139B","EPOCH":"2026-07-20T04:13:36.679872","CLASSIFICATION_TYPE":"U","MEAN_MOTION":15.12700615,"ECCENTRICITY":0.00055971,"INCLINATION":52.9943,"RA_OF_ASC_NODE":112.8125,"ARG_OF_PERICENTER":65.1847,"MEAN_ANOMALY":294.9726,"EPHEMERIS_TYPE":0,"NORAD_CAT_ID":69590,"ELEMENT_SET_NO":999,"REV_AT_EPOCH":497,"BSTAR":0.000034749511,"MEAN_MOTION_DOT":0.00000314,"MEAN_MOTION_DDOT":0}]}
